{
    "links": {
        "self": "http://www.neowsapp.com/rest/v1/neo/3297371?api_key=iIulBulltgU6a56xZRHN4H3l9WmuAYTsLGpBGhQ2"
    },
    "id": "3297371",
    "neo_reference_id": "3297371",
    "name": "(2005 UW6)",
    "designation": "2005 UW6",
    "nasa_jpl_url": "http://ssd.jpl.nasa.gov/sbdb.cgi?sstr=3297371",
    "absolute_magnitude_h": 21.8,
    "estimated_diameter": {
        "kilometers": {
            "estimated_diameter_min": 0.1160259082,
            "estimated_diameter_max": 0.2594418179
        },
        "meters": {
            "estimated_diameter_min": 116.0259082094,
            "estimated_diameter_max": 259.4418179074
        },
        "miles": {
            "estimated_diameter_min": 0.0720951346,
            "estimated_diameter_max": 0.1612096218
        },
        "feet": {
            "estimated_diameter_min": 380.6624406898,
            "estimated_diameter_max": 851.1870938635
        }
    },
    "is_potentially_hazardous_asteroid": true,
    "close_approach_data": [
        {
            "close_approach_date": "1947-11-05",
            "close_approach_date_full": "1947-Nov-05 05:36",
            "epoch_date_close_approach": -699215040000,
            "relative_velocity": {
                "kilometers_per_second": "32.1299951091",
                "kilometers_per_hour": "115667.982392891",
                "miles_per_hour": "71871.5860596272"
            },
            "miss_distance": {
                "astronomical": "0.2968273966",
                "lunar": "115.4658572774",
                "kilometers": "44404746.289005242",
                "miles": "27591829.8938346596"
            },
            "orbiting_body": "Earth"
        },
        {
            "close_approach_date": "1953-09-09",
            "close_approach_date_full": "1953-Sep-09 00:35",
            "epoch_date_close_approach": -514769100000,
            "relative_velocity": {
                "kilometers_per_second": "24.1798747336",
                "kilometers_per_hour": "87047.5490410324",
                "miles_per_hour": "54087.9617916348"
            },
            "miss_distance": {
                "astronomical": "0.0305663386",
                "lunar": "11.8903057154",
                "kilometers": "4572659.148258782",
                "miles": "2841318.6410319116"
            },
            "orbiting_body": "Venus"
        },
        {
            "close_approach_date": "2003-03-01",
            "close_approach_date_full": "2003-Mar-01 21:09",
            "epoch_date_close_approach": 1046552940000,
            "relative_velocity": {
                "kilometers_per_second": "26.7070542093",
                "kilometers_per_hour": "96145.3951535329",
                "miles_per_hour": "59741.0095608161"
            },
            "miss_distance": {
                "astronomical": "0.1025836745",
                "lunar": "39.9050493805",
                "kilometers": "15346299.201973315",
                "miles": "9535748.145589147"
            },
            "orbiting_body": "Venus"
        },
        {
            "close_approach_date": "2005-11-19",
            "close_approach_date_full": "2005-Nov-19 05:30",
            "epoch_date_close_approach": 1132378200000,
            "relative_velocity": {
                "kilometers_per_second": "24.0626117922",
                "kilometers_per_hour": "86625.4024518854",
                "miles_per_hour": "53825.6563179507"
            },
            "miss_distance": {
                "astronomical": "0.0457826204",
                "lunar": "17.8094393356",
                "kilometers": "6848982.494858548",
                "miles": "4255760.3800740424"
            },
            "orbiting_body": "Earth"
        },
        {
            "close_approach_date": "2010-04-20",
            "close_approach_date_full": "2010-Apr-20 00:05",
            "epoch_date_close_approach": 1271721900000,
            "relative_velocity": {
                "kilometers_per_second": "6.5328427429",
                "kilometers_per_hour": "23518.233874458",
                "miles_per_hour": "14613.3159316042"
            },
            "miss_distance": {
                "astronomical": "1.645720714",
                "lunar": "640.185357746",
                "kilometers": "246196313.42927918",
                "miles": "152979295.420765484"
            },
            "orbiting_body": "Juptr"
        }
    ],
    "orbital_data": {
        "orbit_id": "15",
        "orbit_determination_date": "2017-04-06 09:10:03",
        "first_observation_date": "2005-10-29",
        "last_observation_date": "2005-11-19",
        "data_arc_in_days": 21,
        "observations_used": 48,
        "orbit_uncertainty": "7",
        "minimum_orbit_intersection": ".0157264",
        "jupiter_tisserand_invariant": "3.389",
        "epoch_osculation": "2459000.5",
        "eccentricity": ".74066633316227",
        "semi_major_axis": "2.042479830896385",
        "inclination": ".913148046093276",
        "ascending_node_longitude": "334.4471871579328",
        "orbital_period": "1066.191195501401",
        "perihelion_distance": ".5296837839884662",
        "perihelion_argument": "180.8008655957131",
        "aphelion_distance": "3.555275877804304",
        "perihelion_time": "2459068.952648736201",
        "mean_anomaly": "336.8869283023449",
        "mean_motion": ".3376505091384682",
        "equinox": "J2000",
        "orbit_class": {
            "orbit_class_type": "APO",
            "orbit_class_description": "Near-Earth asteroid orbits which cross the Earth’s orbit similar to that of 1862 Apollo",
            "orbit_class_range": "a (semi-major axis) > 1.0 AU; q (perihelion) < 1.017 AU"
        }
    },
    "is_sentry_object": false
}